ONEWEB-0534             
1 55797U 23029B   23304.50729934  .00000053  00000+0  79597-4 0  9998
2 55797  87.9697 105.5223 0001964  75.5422 284.5937 13.34104434 34455
ONEWEB-0556             
1 55798U 23029C   23304.54347521  .00000036  00000+0  44934-4 0  9999
2 55798  87.9680 105.5129 0002619  71.2665 288.8760 13.34031903 34465
ONEWEB-0562             
1 55799U 23029D   23304.49994105  .00000021  00000+0  15145-4 0  9996
2 55799  87.9676 105.5105 0002223  78.4449 281.6941 13.34130957 34455
ONEWEB-0563             
1 55800U 23029E   23304.52615992  .00000055  00000+0  82700-4 0  9995
2 55800  87.9660 105.5230 0001448  74.1000 286.0300 13.34179579 34455
ONEWEB-0564             
1 55801U 23029F   23304.50340634  .00000025  00000+0  24203-4 0  9993
2 55801  87.9674 105.5072 0002198  79.9020 280.2368 13.34098608 34456
ONEWEB-0638             
1 55802U 23029G   23304.54755700  .00000039  00000+0  71225-4 0  9993
2 55802  87.8950 120.7746 0002174  71.4182 288.7183 13.14505201 33323
ONEWEB-0639             
1 55803U 23029H   23304.57039915  .00000281  00000+0  66982-3 0  9992
2 55803  87.9187 135.9704 0001567  31.9876 328.1352 13.19722041 32330
ONEWEB-0640             
1 55804U 23029J   23304.55599536  .00000154  00000+0  38176-3 0  9994
2 55804  87.8927 120.7812 0002353  62.0719 298.0648 13.14496919 33341
